{"type": "FeatureCollection", "features": [ {"type": "Feature", "properties": {"norad_id": 66735, "name": "FLOCK 4H-32", "group": "last-30-days", "lat": -55.94146550635854, "lon": 77.10009481411282, "alt_km": 519.518664465244, "timestamp": "2025-12-20T07:33:49.513722+00:00", "meta": {"OBJECT_NAME": "FLOCK 4H-32", "OBJECT_ID": "2025-276BX", "EPOCH": "2025-12-19T22:00:01.999584", "MEAN_MOTION": 15.17203546, "ECCENTRICITY": 0.00032733, "INCLINATION": 97.4443, "RA_OF_ASC_NODE": 65.5559, "ARG_OF_PERICENTER": 273.5531, "MEAN_ANOMALY": 14.8322, "EPHEMERIS_TYPE": 0, "CLASSIFICATION_TYPE": "U", "NORAD_CAT_ID": 66735, "ELEMENT_SET_NO": 999, "REV_AT_EPOCH": 263, "BSTAR": -0.0011152865, "MEAN_MOTION_DOT": -0.00022149, "MEAN_MOTION_DDOT": 0}, "tle": {"line1": "1 66735U 25276BX  25353.91668981 -.00022149  00000+0 -11153-2 0  9997", "line2": "2 66735  97.4443  65.5559 0003273 273.5531  14.8322 15.17203546  2631"}}, "geometry": {"type": "Point", "coordinates": [77.10009481411282, -55.94146550635854]}}, {"type": "Feature", "properties": {"norad_id": 66736, "name": "FLOCK 4H-33", "group": "last-30-days", "lat": 24.11909205304139, "lon": 62.6251883387639, "alt_km": 511.9332163536519, "timestamp": "2025-12-20T07:33:49.513731+00:00", "meta": {"OBJECT_NAME": "FLOCK 4H-33", "OBJECT_ID": "2025-276BY", "EPOCH": "2025-12-19T22:00:01.999584", "MEAN_MOTION": 15.18257985, "ECCENTRICITY": 0.00024343, "INCLINATION": 97.4438, "RA_OF_ASC_NODE": 65.589, "ARG_OF_PERICENTER": 165.2502, "MEAN_ANOMALY": 202.7052, "EPHEMERIS_TYPE": 0, "CLASSIFICATION_TYPE": "U", "NORAD_CAT_ID": 66736, "ELEMENT_SET_NO": 999, "REV_AT_EPOCH": 264, "BSTAR": -0.0012347134, "MEAN_MOTION_DOT": -0.00025251, "MEAN_MOTION_DDOT": 0}, "tle": {"line1": "1 66736U 25276BY  25353.91668981 -.00025251  00000+0 -12347-2 0  9991", "line2": "2 66736  97.4438  65.5890 0002434 165.2502 202.7052 15.18257985  2643"}}, "geometry": {"type": "Point", "coordinates": [62.6251883387639, 24.11909205304139]}}, {"type": "Feature", "properties": {"norad_id": 66737, "name": "FLOCK 4H-34", "group": "last-30-days", "lat": 16.250856770931613, "lon": 63.79702416796034, "alt_km": 513.7384773993235, "timestamp": "2025-12-20T07:33:49.513745+00:00", "meta": {"OBJECT_NAME": "FLOCK 4H-34", "OBJECT_ID": "2025-276BZ", "EPOCH": "2025-12-19T22:00:01.999584", "MEAN_MOTION": 15.18137984, "ECCENTRICITY": 0.00023297, "INCLINATION": 97.4452, "RA_OF_ASC_NODE": 65.5895, "ARG_OF_PERICENTER": 173.7223, "MEAN_ANOMALY": 186.4619, "EPHEMERIS_TYPE": 0, "CLASSIFICATION_TYPE": "U", "NORAD_CAT_ID": 66737, "ELEMENT_SET_NO": 999, "REV_AT_EPOCH": 263, "BSTAR": -0.0013548357, "MEAN_MOTION_DOT": -0.00027597, "MEAN_MOTION_DDOT": 0}, "tle": {"line1": "1 66737U 25276BZ  25353.91668981 -.00027597  00000+0 -13548-2 0  9991", "line2": "2 66737  97.4452  65.5895 0002329 173.7223 186.4619 15.18137984  2634"}}, "geometry": {"type": "Point", "coordinates": [63.79702416796034, 16.250856770931613]}}, {"type": "Feature", "properties": {"norad_id": 66738, "name": "FLOCK 4H-35", "group": "last-30-days", "lat": 24.194023312259414, "lon": 62.60701243009351, "alt_km": 511.7206334642924, "timestamp": "2025-12-20T07:33:49.513755+00:00", "meta": {"OBJECT_NAME": "FLOCK 4H-35", "OBJECT_ID": "2025-276CA", "EPOCH": "2025-12-19T22:00:01.999584", "MEAN_MOTION": 15.18223341, "ECCENTRICITY": 0.00023016, "INCLINATION": 97.4415, "RA_OF_ASC_NODE": 65.5817, "ARG_OF_PERICENTER": 153.4457, "MEAN_ANOMALY": 214.6382, "EPHEMERIS_TYPE": 0, "CLASSIFICATION_TYPE": "U", "NORAD_CAT_ID": 66738, "ELEMENT_SET_NO": 999, "REV_AT_EPOCH": 264, "BSTAR": -0.0012842768, "MEAN_MOTION_DOT": -0.00026232, "MEAN_MOTION_DDOT": 0}, "tle": {"line1": "1 66738U 25276CA  25353.91668981 -.00026232  00000+0 -12843-2 0  9994", "line2": "2 66738  97.4415  65.5817 0002301 153.4457 214.6382 15.18223341  2647"}}, "geometry": {"type": "Point", "coordinates": [62.60701243009351, 24.194023312259414]}}, {"type": "Feature", "properties": {"norad_id": 66739, "name": "FLOCK 4H-36", "group": "last-30-days", "lat": 4.601150901530909, "lon": 65.37683383632245, "alt_km": 515.9813416119832, "timestamp": "2025-12-20T07:33:49.513767+00:00", "meta": {"OBJECT_NAME": "FLOCK 4H-36", "OBJECT_ID": "2025-276CB", "EPOCH": "2025-12-19T22:00:01.999584", "MEAN_MOTION": 15.1797103, "ECCENTRICITY": 0.00021573, "INCLINATION": 97.4463, "RA_OF_ASC_NODE": 65.5879, "ARG_OF_PERICENTER": 190.2465, "MEAN_ANOMALY": 158.4175, "EPHEMERIS_TYPE": 0, "CLASSIFICATION_TYPE": "U", "NORAD_CAT_ID": 66739, "ELEMENT_SET_NO": 999, "REV_AT_EPOCH": 263, "BSTAR": -0.0012713124, "MEAN_MOTION_DOT": -0.00025783, "MEAN_MOTION_DDOT": 0}, "tle": {"line1": "1 66739U 25276CB  25353.91668981 -.00025783  00000+0 -12713-2 0  9991", "line2": "2 66739  97.4463  65.5879 0002157 190.2465 158.4175 15.17971030  2634"}}, "geometry": {"type": "Point", "coordinates": [65.37683383632245, 4.601150901530909]}}, {"type": "Feature", "properties": {"norad_id": 66740, "name": "TRANSPORTER-15 CC", "group": "last-30-days", "lat": -18.65211794346996, "lon": 68.49074033618686, "alt_km": 517.9833627398557, "timestamp": "2025-12-20T07:33:49.513777+00:00", "meta": {"OBJECT_NAME": "TRANSPORTER-15 CC", "OBJECT_ID": "2025-276CC", "EPOCH": "2025-12-19T15:49:21.558720", "MEAN_MOTION": 15.17664329, "ECCENTRICITY": 0.00019775, "INCLINATION": 97.4424, "RA_OF_ASC_NODE": 65.3171, "ARG_OF_PERICENTER": 255.7883, "MEAN_ANOMALY": 104.3131, "EPHEMERIS_TYPE": 0, "CLASSIFICATION_TYPE": "U", "NORAD_CAT_ID": 66740, "ELEMENT_SET_NO": 999, "REV_AT_EPOCH": 317, "BSTAR": 0.00023135922, "MEAN_MOTION_DOT": 4.592e-05, "MEAN_MOTION_DDOT": 0}, "tle": {"line1": "1 66740U 25276CC  25353.65927730  .00004592  00000+0  23136-3 0  9999", "line2": "2 66740  97.4424  65.3171 0001977 255.7883 104.3131 15.17664329  3178"}}, "geometry": {"type": "Point", "coordinates": [68.49074033618686, -18.65211794346996]}}, {"type": "Feature", "properties": {"norad_id": 66741, "name": "TRANSPORTER-15 CD", "group": "last-30-days", "lat": -23.181752733571717, "lon": 69.16089339131422, "alt_km": 519.3826740686809, "timestamp": "2025-12-20T07:33:49.513787+00:00", "meta": {"OBJECT_NAME": "TRANSPORTER-15 CD", "OBJECT_ID": "2025-276CD", "EPOCH": "2025-12-19T14:15:31.397760", "MEAN_MOTION": 15.17518211, "ECCENTRICITY": 0.0001381, "INCLINATION": 97.442, "RA_OF_ASC_NODE": 65.2436, "ARG_OF_PERICENTER": 216.7985, "MEAN_ANOMALY": 143.3154, "EPHEMERIS_TYPE": 0, "CLASSIFICATION_TYPE": "U", "NORAD_CAT_ID": 66741, "ELEMENT_SET_NO": 999, "REV_AT_EPOCH": 316, "BSTAR": 0.00010486, "MEAN_MOTION_DOT": 2.036e-05, "MEAN_MOTION_DDOT": 0}, "tle": {"line1": "1 66741U 25276CD  25353.59411340  .00002036  00000+0  10486-3 0  9993", "line2": "2 66741  97.4420  65.2436 0001381 216.7985 143.3154 15.17518211  3162"}}, "geometry": {"type": "Point", "coordinates": [69.16089339131422, -23.181752733571717]}}, {"type": "Feature", "properties": {"norad_id": 66742, "name": "TRANSPORTER-15 CE", "group": "last-30-days", "lat": -15.574182700615468, "lon": 68.0404157059165, "alt_km": 518.4997280650905, "timestamp": "2025-12-20T07:33:49.513797+00:00", "meta": {"OBJECT_NAME": "TRANSPORTER-15 CE", "OBJECT_ID": "2025-276CE", "EPOCH": "2025-12-19T15:48:32.372928", "MEAN_MOTION": 15.17663919, "ECCENTRICITY": 0.00013635, "INCLINATION": 97.4416, "RA_OF_ASC_NODE": 65.3075, "ARG_OF_PERICENTER": 204.1741, "MEAN_ANOMALY": 155.9429, "EPHEMERIS_TYPE": 0, "CLASSIFICATION_TYPE": "U", "NORAD_CAT_ID": 66742, "ELEMENT_SET_NO": 999, "REV_AT_EPOCH": 317, "BSTAR": 0.00017578786, "MEAN_MOTION_DOT": 3.473e-05, "MEAN_MOTION_DDOT": 0}, "tle": {"line1": "1 66742U 25276CE  25353.65870802  .00003473  00000+0  17579-3 0  9999", "line2": "2 66742  97.4416  65.3075 0001363 204.1741 155.9429 15.17663919  3170"}}, "geometry": {"type": "Point", "coordinates": [68.0404157059165, -15.574182700615468]}}, {"type": "Feature", "properties": {"norad_id": 66743, "name": "TRANSPORTER-15 CF", "group": "last-30-days", "lat": -33.06819955527693, "lon": 70.82683377482277, "alt_km": 519.5468512601756, "timestamp": "2025-12-20T07:33:49.513807+00:00", "meta": {"OBJECT_NAME": "TRANSPORTER-15 CF", "OBJECT_ID": "2025-276CF", "EPOCH": "2025-12-19T15:53:04.937280", "MEAN_MOTION": 15.17467426, "ECCENTRICITY": 4.328e-05, "INCLINATION": 97.4415, "RA_OF_ASC_NODE": 65.3031, "ARG_OF_PERICENTER": 269.9787, "MEAN_ANOMALY": 90.1397, "EPHEMERIS_TYPE": 0, "CLASSIFICATION_TYPE": "U", "NORAD_CAT_ID": 66743, "ELEMENT_SET_NO": 999, "REV_AT_EPOCH": 317, "BSTAR": 0.00021277504, "MEAN_MOTION_DOT": 4.194e-05, "MEAN_MOTION_DDOT": 0}, "tle": {"line1": "1 66743U 25276CF  25353.66186270  .00004194  00000+0  21278-3 0  9992", "line2": "2 66743  97.4415  65.3031 0000432 269.9787  90.1397 15.17467426  3176"}}, "geometry": {"type": "Point", "coordinates": [70.82683377482277, -33.06819955527693]}}, {"type": "Feature", "properties": {"norad_id": 66744, "name": "TRANSPORTER-15 CG", "group": "last-30-days", "lat": -39.33531882452525, "lon": 72.10127564675473, "alt_km": 519.9965550664028, "timestamp": "2025-12-20T07:33:49.513817+00:00", "meta": {"OBJECT_NAME": "TRANSPORTER-15 CG", "OBJECT_ID": "2025-276CG", "EPOCH": "2025-12-19T15:54:39.286944", "MEAN_MOTION": 15.17300941, "ECCENTRICITY": 0.00013874, "INCLINATION": 97.4425, "RA_OF_ASC_NODE": 65.3107, "ARG_OF_PERICENTER": 267.3904, "MEAN_ANOMALY": 92.7171, "EPHEMERIS_TYPE": 0, "CLASSIFICATION_TYPE": "U", "NORAD_CAT_ID": 66744, "ELEMENT_SET_NO": 999, "REV_AT_EPOCH": 317, "BSTAR": 9.8834121e-05, "MEAN_MOTION_DOT": 1.903e-05, "MEAN_MOTION_DDOT": 0}, "tle": {"line1": "1 66744U 25276CG  25353.66295471  .00001903  00000+0  98834-4 0  9995", "line2": "2 66744  97.4425  65.3107 0001387 267.3904  92.7171 15.17300941  3171"}}, "geometry": {"type": "Point", "coordinates": [72.10127564675473, -39.33531882452525]}}]}